HAWK-5A                 
1 52757U 22057AB  26185.19766573  .00023579  00000+0  39283-3 0  9991
2 52757  97.6625 345.1525 0004312  20.1743 339.9678 15.52006596228988
HAWK-6B                 
1 55324U 23011A   26185.23207294  .00005320  00000+0  22898-3 0  9998
2 55324  40.4976 252.6464 0002440 178.3350 181.7468 15.23082406190441
HAWK-6C                 
1 55326U 23011C   26184.90360274  .00005215  00000+0  22466-3 0  9995
2 55326  40.4962 251.3992 0002713 156.9532 203.1400 15.23076788190404
HAWK-6A                 
1 55327U 23011D   26185.23148657  .00005461  00000+0  23487-3 0  9999
2 55327  40.4973 251.1123 0002330 159.0121 201.0785 15.23081616190458
HAWK-7A                 
1 56191U 23054P   26185.14326384  .00006481  00000+0  24326-3 0  9997
2 56191  97.2676  72.0492 0002726  15.5604 344.5719 15.27537850179613
HAWK-7B                 
1 56193U 23054R   26184.94667453  .00006974  00000+0  26157-3 0  9992
2 56193  97.2704  70.1276 0002532  36.9738 323.1676 15.27537395179581
HAWK-7C                 
1 56200U 23054Y   26184.94655962  .00006919  00000+0  25954-3 0  9996
2 56200  97.2679  70.8910 0002253  24.9967 335.1382 15.27536711179582
