OBJECT_NAME,OBJECT_ID,EPOCH,MEAN_MOTION,ECCENTRICITY,INCLINATION,RA_OF_ASC_NODE,ARG_OF_PERICENTER,MEAN_ANOMALY,EPHEMERIS_TYPE,CLASSIFICATION_TYPE,NORAD_CAT_ID,ELEMENT_SET_NO,REV_AT_EPOCH,BSTAR,MEAN_MOTION_DOT,MEAN_MOTION_DDOT
HAWK-5A,2022-057AB,2026-07-04T04:44:38.319072,15.52006596,.00043121,97.6625,345.1525,20.1743,339.9678,0,U,52757,999,22898,.39283162E-3,.23579E-3,0
HAWK-6B,2023-011A,2026-07-04T05:34:11.102016,15.23082406,.00024407,40.4976,252.6464,178.3350,181.7468,0,U,55324,999,19044,.22898081E-3,.532E-4,0
HAWK-6C,2023-011C,2026-07-03T21:41:11.276736,15.23076788,.00027139,40.4962,251.3992,156.9532,203.1400,0,U,55326,999,19040,.2246611E-3,.5215E-4,0
HAWK-6A,2023-011D,2026-07-04T05:33:20.439648,15.23081616,.000233,40.4973,251.1123,159.0121,201.0785,0,U,55327,999,19045,.23486703E-3,.5461E-4,0
HAWK-7A,2023-054P,2026-07-04T03:26:17.995776,15.27537850,.00027268,97.2676,72.0492,15.5604,344.5719,0,U,56191,999,17961,.24326362E-3,.6481E-4,0
HAWK-7B,2023-054R,2026-07-03T22:43:12.679392,15.27537395,.00025321,97.2704,70.1276,36.9738,323.1676,0,U,56193,999,17958,.26156504E-3,.6974E-4,0
HAWK-7C,2023-054Y,2026-07-03T22:43:02.751168,15.27536711,.00022535,97.2679,70.8910,24.9967,335.1382,0,U,56200,999,17958,.25954447E-3,.6919E-4,0
